KUIPER-00250            
1 67155U 25301Y   26015.02520647  .00014582  00000+0  41614-3 0  9993
2 67155  51.8724 324.5811 0006592 187.7499 172.3386 15.36253077  5514
KUIPER-00251            
1 67156U 25301Z   26015.10388811  .00014460  00000+0  42365-3 0  9997
2 67156  51.8686 324.3470 0008942 200.0333 160.0303 15.35416869  5688
KUIPER-00252            
1 67157U 25301AA  26015.11244354  .00017050  00000+0  50277-3 0  9991
2 67157  51.8677 324.4007 0009646 211.5168 148.5241 15.35071957  5497
KUIPER-00261            
1 67158U 25301AB  26015.02429653  .00016233  00000+0  46116-3 0  9998
2 67158  51.8705 324.5734 0006621 183.7070 176.3869 15.36304774  5481
KUIPER-00265            
1 67159U 25301AC  26015.16670139 -.01087976  00000+0 -60288-1 0  9990
2 67159  51.8853 324.5527 0001400 193.6542 295.5211 15.16082977  5537
GSAT0233 (GALILEO 33)   
1 67160U 25302A   25352.14605887 -.00000007  00000+0  00000+0 0  9994
2 67160  54.2406 107.2544 0008423 237.6458 122.2317  1.72906186    28
ARIANE 6 R/B            
1 67161U 25302B   26014.31699228 -.00000032  00000+0  00000+0 0  9990
2 67161  54.2437 106.4249 0005217 261.0325  98.9126  1.72972424   506
GSAT0234 (GALILEO 34)   
1 67162U 25302C   25356.18244914  .00000006  00000+0  00000+0 0  9992
2 67162  54.2447 107.1379 0000312 196.8367 159.4994  1.73130437   127
STARLINK-35755          
1 67163U 25303A   26015.16670139  .00069055  00000+0  16482-2 0  9990
2 67163  42.9988 256.8112 0002091 262.8495 162.3705 15.40648563  5548
STARLINK-36201          
1 67164U 25303B   26015.16670139  .00081097  00000+0  19292-2 0  9993
2 67164  42.9990 256.7792 0001434 287.9858 149.7487 15.40681807  5843
STARLINK-36186          
1 67165U 25303C   26015.16670139  .00068826  00000+0  16412-2 0  9990
2 67165  42.9987 256.6880 0001204 270.1429 204.8648 15.40679666  5842
STARLINK-36174          
1 67166U 25303D   26015.16670139  .00079706  00000+0  18966-2 0  9996
2 67166  42.9990 256.7501 0001485 259.3533 190.8192 15.40681155  5679
